{
"type": "FeatureCollection",
"name": "cumulative_sectors:hafren_north_linestrings",
"properties": { "reference_track": "hafren_north", "coordinate_space": "acc_world_zx", "timing_mode": "cumulative", "geometry_type": "LineString", "marker_count": 30, "source": "runtime export from hafren_north_linestrings3.geojson (geometry-only gates)" },
"features": [
{ "type": "Feature", "properties": { "marker_role": "timing_start", "marker_order": 0, "seg_id": 0, "marker_label": "Start" }, "geometry": { "type": "LineString", "coordinates": [ [ -1081.3, 634.3 ], [ -1091.0, 674.2 ] ] } },
{ "type": "Feature", "properties": { "marker_role": "sector_boundary", "marker_order": 1, "seg_id": 1, "marker_label": "S1-1" }, "geometry": { "type": "LineString", "coordinates": [ [ -896.6, 742.5 ], [ -913.3, 772.6 ] ] } },
{ "type": "Feature", "properties": { "marker_role": "sector_boundary", "marker_order": 2, "seg_id": 2, "marker_label": "S1-2" }, "geometry": { "type": "LineString", "coordinates": [ [ -843.7, 749.8 ], [ -827.8, 731.9 ] ] } },
{ "type": "Feature", "properties": { "marker_role": "sector_boundary", "marker_order": 3, "seg_id": 3, "marker_label": "S1-3" }, "geometry": { "type": "LineString", "coordinates": [ [ -675.7, 638.8 ], [ -661.9, 670.5 ] ] } },
{ "type": "Feature", "properties": { "marker_role": "sector_boundary", "marker_order": 4, "seg_id": 4, "marker_label": "S1-4" }, "geometry": { "type": "LineString", "coordinates": [ [ -672.5, 71.8 ], [ -579.8, 107.9 ] ] } },
{ "type": "Feature", "properties": { "marker_role": "sector_boundary", "marker_order": 5, "seg_id": 5, "marker_label": "S1-5" }, "geometry": { "type": "LineString", "coordinates": [ [ -217.0, -593.2 ], [ -142.3, -548.4 ] ] } },
{ "type": "Feature", "properties": { "marker_role": "sector_boundary", "marker_order": 8, "seg_id": 8, "marker_label": "Sector 1" }, "geometry": { "type": "LineString", "coordinates": [ [ 301.9, -1019.3 ], [ 319.5, -972.9 ] ] } },
{ "type": "Feature", "properties": { "marker_role": "sector_boundary", "marker_order": 9, "seg_id": 34, "marker_label": "S2-1" }, "geometry": { "type": "LineString", "coordinates": [ [ 745.3, -1086.5 ], [ 737.2, -1031.4 ] ] } },
{ "type": "Feature", "properties": { "marker_role": "sector_boundary", "marker_order": 10, "seg_id": 35, "marker_label": "S2-2" }, "geometry": { "type": "LineString", "coordinates": [ [ 496.8, -893.8 ], [ 516.2, -855.6 ] ] } },
{ "type": "Feature", "properties": { "marker_role": "sector_boundary", "marker_order": 11, "seg_id": 36, "marker_label": "S2-3" }, "geometry": { "type": "LineString", "coordinates": [ [ 322.0, -661.0 ], [ 356.4, -667.1 ] ] } },
{ "type": "Feature", "properties": { "marker_role": "sector_boundary", "marker_order": 12, "seg_id": 37, "marker_label": "S2-4" }, "geometry": { "type": "LineString", "coordinates": [ [ 719.0, -226.7 ], [ 760.2, -251.2 ] ] } },
{ "type": "Feature", "properties": { "marker_role": "sector_boundary", "marker_order": 13, "seg_id": 38, "marker_label": "S2-5" }, "geometry": { "type": "LineString", "coordinates": [ [ 640.4, -41.7 ], [ 641.9, 17.2 ] ] } },
{ "type": "Feature", "properties": { "marker_role": "sector_boundary", "marker_order": 14, "seg_id": 39, "marker_label": "S2-6" }, "geometry": { "type": "LineString", "coordinates": [ [ 363.5, -198.1 ], [ 346.4, -167.2 ] ] } },
{ "type": "Feature", "properties": { "marker_role": "sector_boundary", "marker_order": 23, "seg_id": 9, "marker_label": "Sector 2" }, "geometry": { "type": "LineString", "coordinates": [ [ 37.8, 101.6 ], [ 53.9, 120.6 ] ] } },
{ "type": "Feature", "properties": { "marker_role": "sector_boundary", "marker_order": 25, "seg_id": 18, "marker_label": "S3-1" }, "geometry": { "type": "LineString", "coordinates": [ [ 109.3, 502.5 ], [ 146.6, 477.2 ] ] } },
{ "type": "Feature", "properties": { "marker_role": "sector_boundary", "marker_order": 27, "seg_id": 20, "marker_label": "S3-3" }, "geometry": { "type": "LineString", "coordinates": [ [ 177.961819214077138, 744.352003375119466 ], [ 153.530384787847595, 804.073287528124979 ] ] } },
{ "type": "Feature", "properties": { "marker_role": "sector_boundary", "marker_order": 29, "seg_id": 22, "marker_label": "S3-5" }, "geometry": { "type": "LineString", "coordinates": [ [ -360.0, 955.9 ], [ -308.7, 914.2 ] ] } },
{ "type": "Feature", "properties": { "marker_role": "sector_boundary", "marker_order": 30, "seg_id": 23, "marker_label": "S3-6" }, "geometry": { "type": "LineString", "coordinates": [ [ -683.2, 766.9 ], [ -672.1, 829.8 ] ] } },
{ "type": "Feature", "properties": { "marker_role": "sector_boundary", "marker_order": 32, "seg_id": 25, "marker_label": "Sector 3" }, "geometry": { "type": "LineString", "coordinates": [ [ -564.1, 1603.7 ], [ -597.1, 1598.2 ] ] } },
{ "type": "Feature", "properties": { "marker_role": "sector_boundary", "marker_order": 34, "seg_id": 27, "marker_label": "S4-2" }, "geometry": { "type": "LineString", "coordinates": [ [ -227.3, 1725.7 ], [ -226.9, 1752.2 ] ] } },
{ "type": "Feature", "properties": { "marker_role": "sector_boundary", "marker_order": 35, "seg_id": 28, "marker_label": "S4-3" }, "geometry": { "type": "LineString", "coordinates": [ [ 108.5, 1587.5 ], [ 125.5, 1619.9 ] ] } },
{ "type": "Feature", "properties": { "marker_role": "sector_boundary", "marker_order": 37, "seg_id": 30, "marker_label": "S4-5" }, "geometry": { "type": "LineString", "coordinates": [ [ 466.1, 1607.9 ], [ 501.5, 1620.0 ] ] } },
{ "type": "Feature", "properties": { "marker_role": "sector_boundary", "marker_order": 39, "seg_id": 32, "marker_label": "S4-6" }, "geometry": { "type": "LineString", "coordinates": [ [ 944.4, 1357.8 ], [ 946.2, 1391.9 ] ] } },
{ "type": "Feature", "properties": { "marker_role": "finish", "marker_order": 40, "seg_id": 33, "marker_label": "Finish" }, "geometry": { "type": "LineString", "coordinates": [ [ 1127.6, 1122.6 ], [ 1126.1, 1142.9 ] ] } }
]
}
