{
"type": "FeatureCollection",
"name": "hafren_north_linestrings3",
"crs": { "type": "name", "properties": { "name": "urn:ogc:def:crs:EPSG::3857" } },
"features": [
{ "type": "Feature", "properties": { "kind": "timing_sector_sector_boundary", "marker_role": "sector_boundary", "marker_order": 23, "seg_id": 9, "marker_label": "Sector 2", "game_x": 115.6, "game_z": 48.9, "distance_traveled_m": 6412.0, "description": "end sector 2 (from cwmbiga_afon_biga)", "gate_geom": "linestring", "center_z": 48.9, "center_x": 115.6, "p2_offset_z_m": 5.0, "p2_offset_x_m": 5.0 }, "geometry": { "type": "LineString", "coordinates": [ [ 48.9, 115.6 ], [ 53.9, 120.6 ] ] } },
{ "type": "Feature", "properties": { "kind": "timing_sector_timing_start", "marker_role": "timing_start", "marker_order": 0, "seg_id": 0, "marker_label": "Start", "game_x": 657.7, "game_z": -1087.0, "distance_traveled_m": 154.0, "description": "grid / stage zero (from cwmbiga_afon_biga)", "gate_geom": "linestring", "center_z": -1087.0, "center_x": 657.7, "p2_offset_z_m": 5.0, "p2_offset_x_m": 5.0 }, "geometry": { "type": "LineString", "coordinates": [ [ -1081.260259067173592, 634.288445642873967 ], [ -1091.023328662471386, 674.154313157005845 ] ] } },
{ "type": "Feature", "properties": { "kind": "timing_sector_sector_boundary", "marker_role": "sector_boundary", "marker_order": 1, "seg_id": 1, "marker_label": "CP 1", "game_x": 756.1, "game_z": -902.2, "distance_traveled_m": 370.4, "description": "cumulative gate Start→S1", "gate_geom": "linestring", "center_z": -902.2, "center_x": 756.1, "p2_offset_z_m": 5.0, "p2_offset_x_m": 5.0 }, "geometry": { "type": "LineString", "coordinates": [ [ -896.575525889461233, 742.495800324088805 ], [ -913.254103114761278, 772.598598242923003 ] ] } },
{ "type": "Feature", "properties": { "kind": "timing_sector_sector_boundary", "marker_role": "sector_boundary", "marker_order": 2, "seg_id": 2, "marker_label": "CP 2", "game_x": 792.8, "game_z": -820.8, "distance_traveled_m": 461.3, "description": "cumulative gate Start→S1", "gate_geom": "linestring", "center_z": -820.8, "center_x": 792.8, "p2_offset_z_m": 5.0, "p2_offset_x_m": 5.0 }, "geometry": { "type": "LineString", "coordinates": [ [ -843.692232248266009, 749.818102520561979 ], [ -827.827244155907465, 731.919141595849737 ] ] } },
{ "type": "Feature", "properties": { "kind": "timing_sector_sector_boundary", "marker_role": "sector_boundary", "marker_order": 3, "seg_id": 3, "marker_label": "CP 3", "game_x": 698.5, "game_z": -804.8, "distance_traveled_m": 695.2, "description": "cumulative gate Start→S1", "gate_geom": "linestring", "center_z": -804.8, "center_x": 698.5, "p2_offset_z_m": 5.0, "p2_offset_x_m": 5.0 }, "geometry": { "type": "LineString", "coordinates": [ [ -675.686076295853695, 638.763185874052056 ], [ -661.855061035848735, 670.493162058769258 ] ] } },
{ "type": "Feature", "properties": { "kind": "timing_sector_sector_boundary", "marker_role": "sector_boundary", "marker_order": 4, "seg_id": 4, "marker_label": "CP 4", "game_x": 93.1, "game_z": -616.4, "distance_traveled_m": 1463.7, "description": "cumulative gate Start→S1", "gate_geom": "linestring", "center_z": -616.4, "center_x": 93.1, "p2_offset_z_m": 5.0, "p2_offset_x_m": 5.0 }, "geometry": { "type": "LineString", "coordinates": [ [ -672.52235173208453, 71.778094873917496 ], [ -579.800200753469085, 107.876031514447163 ] ] } },
{ "type": "Feature", "properties": { "kind": "timing_sector_sector_boundary", "marker_role": "sector_boundary", "marker_order": 5, "seg_id": 5, "marker_label": "CP 5", "game_x": -350.2, "game_z": -284.5, "distance_traveled_m": 2060.3, "description": "cumulative gate Start→S1", "gate_geom": "linestring", "center_z": -284.5, "center_x": -350.2, "p2_offset_z_m": 5.0, "p2_offset_x_m": 5.0 }, "geometry": { "type": "LineString", "coordinates": [ [ -312.604689345627094, -358.91983543514732 ], [ -261.64289644134999, -342.994275152560704 ] ] } },
{ "type": "Feature", "properties": { "kind": "timing_sector_sector_boundary", "marker_role": "sector_boundary", "marker_order": 6, "seg_id": 6, "marker_label": "CP 6", "game_x": -728.3, "game_z": -63.9, "distance_traveled_m": 2512.3, "description": "cumulative gate Start→S1", "gate_geom": "linestring", "center_z": -63.9, "center_x": -728.3, "p2_offset_z_m": 5.0, "p2_offset_x_m": 5.0 }, "geometry": { "type": "LineString", "coordinates": [ [ -97.388437193449704, -749.936578040100244 ], [ -46.249693619366042, -717.023753456087888 ] ] } },
{ "type": "Feature", "properties": { "kind": "timing_sector_sector_boundary", "marker_role": "sector_boundary", "marker_order": 8, "seg_id": 8, "marker_label": "Sector 1", "game_x": -993.5, "game_z": 311.8, "distance_traveled_m": 2997.0, "description": "end sector 1 (from cwmbiga_afon_biga)", "gate_geom": "linestring", "center_z": 311.8, "center_x": -993.5, "p2_offset_z_m": 5.0, "p2_offset_x_m": 5.0 }, "geometry": { "type": "LineString", "coordinates": [ [ 301.888568694574701, -1019.313394931274843 ], [ 319.454252984789434, -972.916077002408997 ] ] } },
{ "type": "Feature", "properties": { "kind": "timing_sector_sector_boundary", "marker_role": "sector_boundary", "marker_order": 9, "seg_id": 34, "marker_label": "CP S1S2-1", "game_x": -1016.8, "game_z": 874.0, "distance_traveled_m": 3579.8, "description": "cumulative gate S1→S2", "gate_geom": "linestring", "center_z": 874.0, "center_x": -1016.8, "p2_offset_z_m": 5.0, "p2_offset_x_m": 5.0 }, "geometry": { "type": "LineString", "coordinates": [ [ 888.637604147821207, -1039.454153358274652 ], [ 861.047524110834729, -996.597562367488877 ] ] } },
{ "type": "Feature", "properties": { "kind": "timing_sector_sector_boundary", "marker_role": "sector_boundary", "marker_order": 10, "seg_id": 35, "marker_label": "CP S1S2-2", "game_x": -874.5, "game_z": 506.6, "distance_traveled_m": 4091.7, "description": "cumulative gate S1→S2", "gate_geom": "linestring", "center_z": 506.6, "center_x": -874.5, "p2_offset_z_m": 5.0, "p2_offset_x_m": 5.0 }, "geometry": { "type": "LineString", "coordinates": [ [ 496.76650068915626, -893.778530762985952 ], [ 516.171523648503467, -855.612253378487935 ] ] } },
{ "type": "Feature", "properties": { "kind": "timing_sector_sector_boundary", "marker_role": "sector_boundary", "marker_order": 11, "seg_id": 36, "marker_label": "CP S1S2-3", "game_x": -664.2, "game_z": 339.7, "distance_traveled_m": 4386.6, "description": "cumulative gate S1→S2", "gate_geom": "linestring", "center_z": 339.7, "center_x": -664.2, "p2_offset_z_m": 5.0, "p2_offset_x_m": 5.0 }, "geometry": { "type": "LineString", "coordinates": [ [ 322.029327121574681, -661.010222184276017 ], [ 356.424960234351204, -667.080039792413118 ] ] } },
{ "type": "Feature", "properties": { "kind": "timing_sector_sector_boundary", "marker_role": "sector_boundary", "marker_order": 12, "seg_id": 37, "marker_label": "CP S1S2-4", "game_x": -239.2, "game_z": 740.0, "distance_traveled_m": 5137.0, "description": "cumulative gate S1→S2", "gate_geom": "linestring", "center_z": 740.0, "center_x": -239.2, "p2_offset_z_m": 5.0, "p2_offset_x_m": 5.0 }, "geometry": { "type": "LineString", "coordinates": [ [ 718.95861192035386, -226.742362402108455 ], [ 760.159798108920427, -251.205566701569808 ] ] } },
{ "type": "Feature", "properties": { "kind": "timing_sector_sector_boundary", "marker_role": "sector_boundary", "marker_order": 13, "seg_id": 38, "marker_label": "CP S1S2-5", "game_x": -12.9, "game_z": 741.9, "distance_traveled_m": 5431.7, "description": "cumulative gate S1→S2", "gate_geom": "linestring", "center_z": 741.9, "center_x": -12.9, "p2_offset_z_m": 5.0, "p2_offset_x_m": 5.0 }, "geometry": { "type": "LineString", "coordinates": [ [ 640.418850748398881, -41.704892287385768 ], [ 641.890321683704883, 17.153945124852115 ] ] } },
{ "type": "Feature", "properties": { "kind": "timing_sector_sector_boundary", "marker_role": "sector_boundary", "marker_order": 14, "seg_id": 39, "marker_label": "CP S1S2-6", "game_x": -181.7, "game_z": 354.5, "distance_traveled_m": 5879.4, "description": "cumulative gate S1→S2", "gate_geom": "linestring", "center_z": 354.5, "center_x": -181.7, "p2_offset_z_m": 5.0, "p2_offset_x_m": 5.0 }, "geometry": { "type": "LineString", "coordinates": [ [ 363.506414110511059, -198.140646097099221 ], [ 346.400564487579402, -167.239756455674325 ] ] } },
{ "type": "Feature", "properties": { "kind": "timing_sector_sector_boundary", "marker_role": "sector_boundary", "marker_order": 15, "seg_id": 40, "marker_label": "CP S1S2-7", "game_x": 6.7, "game_z": 127.4, "distance_traveled_m": 6275.5, "description": "cumulative gate S1→S2", "gate_geom": "linestring", "center_z": 127.4, "center_x": 6.7, "p2_offset_z_m": 5.0, "p2_offset_x_m": 5.0 }, "geometry": { "type": "LineString", "coordinates": [ [ 98.365744955070681, -7.125325307696016 ], [ 156.856714633482113, 21.568357930769935 ] ] } },
{ "type": "Feature", "properties": { "kind": "timing_sector_sector_boundary", "marker_role": "sector_boundary", "marker_order": 25, "seg_id": 18, "marker_label": "CP S3-1", "game_x": 490.7, "game_z": 126.4, "distance_traveled_m": 6830.0, "description": "cumulative gate S2→S3 (Sektor 3)", "gate_geom": "linestring", "center_z": 126.4, "center_x": 490.7, "p2_offset_z_m": 5.0, "p2_offset_x_m": 5.0 }, "geometry": { "type": "LineString", "coordinates": [ [ 109.309810036408891, 502.463452975444682 ], [ 146.648385019797331, 477.172546274873639 ] ] } },
{ "type": "Feature", "properties": { "kind": "timing_sector_sector_boundary", "marker_role": "sector_boundary", "marker_order": 26, "seg_id": 19, "marker_label": "CP S3-2", "game_x": 626.7, "game_z": -0.3, "distance_traveled_m": 7080.9, "description": "cumulative gate S2→S3 (Sektor 3)", "gate_geom": "linestring", "center_z": -0.3, "center_x": 626.7, "p2_offset_z_m": 5.0, "p2_offset_x_m": 5.0 }, "geometry": { "type": "LineString", "coordinates": [ [ -7.166311186402467, 614.525161392338191 ], [ 6.904629632460647, 639.494183825810978 ] ] } },
{ "type": "Feature", "properties": { "kind": "timing_sector_sector_boundary", "marker_role": "sector_boundary", "marker_order": 27, "seg_id": 20, "marker_label": "CP S3-3", "game_x": 762.3, "game_z": 123.2, "distance_traveled_m": 7333.1, "description": "cumulative gate S2→S3 (Sektor 3)", "gate_geom": "linestring", "center_z": 123.2, "center_x": 762.3, "p2_offset_z_m": 5.0, "p2_offset_x_m": 5.0 }, "geometry": { "type": "LineString", "coordinates": [ [ 132.117609533651034, 735.645612754708964 ], [ 115.379627644545906, 785.491690688197878 ] ] } },
{ "type": "Feature", "properties": { "kind": "timing_sector_sector_boundary", "marker_role": "sector_boundary", "marker_order": 28, "seg_id": 21, "marker_label": "CP S3-4", "game_x": 918.0, "game_z": 220.2, "distance_traveled_m": 7562.9, "description": "cumulative gate S2→S3 (Sektor 3)", "gate_geom": "linestring", "center_z": 220.2, "center_x": 918.0, "p2_offset_z_m": 5.0, "p2_offset_x_m": 5.0 }, "geometry": { "type": "LineString", "coordinates": [ [ 149.637310357137522, 935.12189142212128 ], [ 158.650069835886427, 968.229987466505122 ] ] } },
{ "type": "Feature", "properties": { "kind": "timing_sector_sector_boundary", "marker_role": "sector_boundary", "marker_order": 29, "seg_id": 22, "marker_label": "CP S3-5", "game_x": 935.4, "game_z": -334.4, "distance_traveled_m": 8176.5, "description": "cumulative gate S2→S3 (Sektor 3)", "gate_geom": "linestring", "center_z": -334.4, "center_x": 935.4, "p2_offset_z_m": 5.0, "p2_offset_x_m": 5.0 }, "geometry": { "type": "LineString", "coordinates": [ [ -360.043434859460035, 955.906418383317941 ], [ -308.72588599066512, 914.153430594011752 ] ] } },
{ "type": "Feature", "properties": { "kind": "timing_sector_sector_boundary", "marker_role": "sector_boundary", "marker_order": 30, "seg_id": 23, "marker_label": "CP S3-6", "game_x": 801.3, "game_z": -677.3, "distance_traveled_m": 8580.6, "description": "cumulative gate S2→S3 (Sektor 3)", "gate_geom": "linestring", "center_z": -677.3, "center_x": 801.3, "p2_offset_z_m": 5.0, "p2_offset_x_m": 5.0 }, "geometry": { "type": "LineString", "coordinates": [ [ -683.169255559300268, 766.868386663232286 ], [ -672.133223544505654, 829.773769147561552 ] ] } },
{ "type": "Feature", "properties": { "kind": "timing_sector_sector_boundary", "marker_role": "sector_boundary", "marker_order": 32, "seg_id": 25, "marker_label": "Sector 3", "game_x": 1601.6, "game_z": -576.5, "distance_traveled_m": 9587.0, "description": "end sector 3 (from cwmbiga_afon_biga)", "gate_geom": "linestring", "center_z": -576.5, "center_x": 1601.6, "p2_offset_z_m": 5.0, "p2_offset_x_m": 5.0 }, "geometry": { "type": "LineString", "coordinates": [ [ -594.605098640573829, 1584.638358959511834 ], [ -561.129134862363571, 1591.259978168388443 ] ] } },
{ "type": "Feature", "properties": { "kind": "timing_sector_sector_boundary", "marker_role": "sector_boundary", "marker_order": 33, "seg_id": 26, "marker_label": "CP S4-1", "game_x": 1688.0, "game_z": -473.1, "distance_traveled_m": 9737.4, "description": "cumulative gate S3→Finish (Sektor 4)", "gate_geom": "linestring", "center_z": -473.1, "center_x": 1688.0, "p2_offset_z_m": 5.0, "p2_offset_x_m": 5.0 }, "geometry": { "type": "LineString", "coordinates": [ [ -462.402631796681135, 1673.800300945707477 ], [ -484.474695826270363, 1702.861851917999957 ] ] } },
{ "type": "Feature", "properties": { "kind": "timing_sector_sector_boundary", "marker_role": "sector_boundary", "marker_order": 34, "seg_id": 27, "marker_label": "CP S4-2", "game_x": 1739.6, "game_z": -213.3, "distance_traveled_m": 10007.6, "description": "cumulative gate S3→Finish (Sektor 4)", "gate_geom": "linestring", "center_z": -213.3, "center_x": 1739.6, "p2_offset_z_m": 5.0, "p2_offset_x_m": 5.0 }, "geometry": { "type": "LineString", "coordinates": [ [ -227.289166414827207, 1725.715634881969891 ], [ -226.921298681000735, 1752.202111717476782 ] ] } },
{ "type": "Feature", "properties": { "kind": "timing_sector_sector_boundary", "marker_role": "sector_boundary", "marker_order": 35, "seg_id": 28, "marker_label": "CP S4-3", "game_x": 1602.9, "game_z": 116.5, "distance_traveled_m": 10376.2, "description": "cumulative gate S3→Finish (Sektor 4)", "gate_geom": "linestring", "center_z": 116.5, "center_x": 1602.9, "p2_offset_z_m": 5.0, "p2_offset_x_m": 5.0 }, "geometry": { "type": "LineString", "coordinates": [ [ 108.528091102026735, 1587.489333896667631 ], [ 125.450006858045128, 1619.861694473398529 ] ] } },
{ "type": "Feature", "properties": { "kind": "timing_sector_sector_boundary", "marker_role": "sector_boundary", "marker_order": 36, "seg_id": 29, "marker_label": "CP S4-4", "game_x": 1675.5, "game_z": 325.4, "distance_traveled_m": 10650.1, "description": "cumulative gate S3→Finish (Sektor 4)", "gate_geom": "linestring", "center_z": 325.4, "center_x": 1675.5, "p2_offset_z_m": 5.0, "p2_offset_x_m": 5.0 }, "geometry": { "type": "LineString", "coordinates": [ [ 325.4, 1675.5 ], [ 330.4, 1680.5 ] ] } },
{ "type": "Feature", "properties": { "kind": "timing_sector_sector_boundary", "marker_role": "sector_boundary", "marker_order": 37, "seg_id": 30, "marker_label": "CP S4-5", "game_x": 1615.0, "game_z": 486.5, "distance_traveled_m": 10853.8, "description": "cumulative gate S3→Finish (Sektor 4)", "gate_geom": "linestring", "center_z": 486.5, "center_x": 1615.0, "p2_offset_z_m": 5.0, "p2_offset_x_m": 5.0 }, "geometry": { "type": "LineString", "coordinates": [ [ 466.141511848100265, 1607.860009657309547 ], [ 501.456814295442996, 1619.999644873583748 ] ] } },
{ "type": "Feature", "properties": { "kind": "timing_sector_sector_boundary", "marker_role": "sector_boundary", "marker_order": 39, "seg_id": 32, "marker_label": "CP S4-7", "game_x": 1374.6, "game_z": 945.4, "distance_traveled_m": 11404.6, "description": "cumulative gate S3→Finish (Sektor 4)", "gate_geom": "linestring", "center_z": 945.4, "center_x": 1374.6, "p2_offset_z_m": 5.0, "p2_offset_x_m": 5.0 }, "geometry": { "type": "LineString", "coordinates": [ [ 944.369565822532991, 1357.755934122027156 ], [ 946.208904491665407, 1391.875666434433697 ] ] } },
{ "type": "Feature", "properties": { "kind": "timing_sector_finish", "marker_role": "finish", "marker_order": 40, "seg_id": 33, "marker_label": "Finish", "game_x": 1133.6, "game_z": 1126.8, "distance_traveled_m": 11764.0, "description": "finish (from cwmbiga_afon_biga)", "gate_geom": "linestring", "center_z": 1126.8, "center_x": 1133.6, "p2_offset_z_m": 5.0, "p2_offset_x_m": 5.0 }, "geometry": { "type": "LineString", "coordinates": [ [ 1127.567697268123311, 1122.596485273445296 ], [ 1126.096226332817196, 1142.921177567358654 ] ] } }
]
}
