{
  "type": "FeatureCollection",
  "name": "timing_sectors:cwmbiga_afon_biga",
  "properties": {
    "stage": "Cwmbiga - Afon Biga",
    "stage_slug": "cwmbiga_afon_biga",
    "finish": "Afon Biga",
    "finish_short": "Afon",
    "heading_at_start_rad": -0.217,
    "reference_track": "hafren_north",
    "coordinate_space": "acc_world_zx",
    "swap_xz": true,
    "calibration_method": "Stopping at each split",
    "calibration_note": "wheel centroid at each stop.",
    "position_source": "physics_tyre_contact_centroid",
    
    "marker_count": 5
  },
  "features": [
    {
      "type": "Feature",
      "geometry": { "type": "Point", "coordinates": [-1087.1, 657.7] },
      "properties": {
        "kind": "timing_sector_timing_start",
        "marker_role": "timing_start",
        "marker_order": 0,
        "marker_label": "Start",
        "game_x": 657.7,
        "game_z": -1087.1,
        "distance_traveled_m": 154,
        "description": "grid / stage zero"
      }
    },
    {
      "type": "Feature",
      "geometry": { "type": "Point", "coordinates": [311.9, -993.0] },
      "properties": {
        "kind": "timing_sector_sector_boundary",
        "marker_role": "sector_boundary",
        "marker_order": 1,
        "marker_label": "Sector 1",
        "game_x": -993.0,
        "game_z": 311.9,
        "distance_traveled_m": 2997,
        "description": "end sector 1"
      }
    },
    {
      "type": "Feature",
      "geometry": { "type": "Point", "coordinates": [46.1, 111.4] },
      "properties": {
        "kind": "timing_sector_sector_boundary",
        "marker_role": "sector_boundary",
        "marker_order": 2,
        "marker_label": "Sector 2",
        "game_x": 111.4,
        "game_z": 46.1,
        "distance_traveled_m": 6412,
        "description": "end sector 2"
      }
    },
    {
      "type": "Feature",
      "geometry": { "type": "Point", "coordinates": [-576.8, 1601.5] },
      "properties": {
        "kind": "timing_sector_sector_boundary",
        "marker_role": "sector_boundary",
        "marker_order": 3,
        "marker_label": "Sector 3",
        "game_x": 1601.5,
        "game_z": -576.8,
        "distance_traveled_m": 9587,
        "description": "end sector 3"
      }
    },
    {
      "type": "Feature",
      "geometry": { "type": "Point", "coordinates": [1126.8, 1133.5] },
      "properties": {
        "kind": "timing_sector_finish",
        "marker_role": "finish",
        "marker_order": 4,
        "marker_label": "Finish",
        "game_x": 1133.5,
        "game_z": 1126.8,
        "distance_traveled_m": 11764,
        "description": "finish"
      }
    }
  ]
}
