{
  "type": "FeatureCollection",
  "name": "timing_sectors:cwmbiga_fedw_fain",
  "properties": {
    "stage": "Cwmbiga - Fedw Fain",
    "stage_slug": "cwmbiga_fedw_fain",
    "finish": "fedw fain",
    "finish_short": "fedw",
    "heading_at_start_rad": -0.217,
    "reference_track": "hafren_north",
    "coordinate_space": "acc_world_zx",
    "swap_xz": true,
    "calibration_method": "Stopping at each split",
    "calibration_note": "wheel centroid at each stop.",
    "position_source": "physics_tyre_contact_centroid",
    "marker_count": 4
  },
  "features": [
    {
      "type": "Feature",
      "geometry": { "type": "Point", "coordinates": [-1087.1, 657.7] },
      "properties": {
        "kind": "timing_sector_timing_start",
        "marker_role": "timing_start",
        "marker_order": 0,
        "marker_label": "Start",
        "game_x": 657.7,
        "game_z": -1087.1,
        "description": "grid / stage zero"
      }
    },
    {
      "type": "Feature",
      "geometry": { "type": "Point", "coordinates": [-250.4, -475.8] },
      "properties": {
        "kind": "timing_sector_sector_boundary",
        "marker_role": "sector_boundary",
        "marker_order": 1,
        "marker_label": "Sector 1",
        "game_x": -475.8,
        "game_z": -250.4,
        "description": "end sector 1"
      }
    },
    {
      "type": "Feature",
      "geometry": { "type": "Point", "coordinates": [391.3, -802.8] },
      "properties": {
        "kind": "timing_sector_sector_boundary",
        "marker_role": "sector_boundary",
        "marker_order": 2,
        "marker_label": "Sector 2",
        "game_x": -802.8,
        "game_z": 391.3,
        "description": "end sector 2"
      }
    },

    {
      "type": "Feature",
      "geometry": { "type": "Point", "coordinates": [35.3, 205.7] },
      "properties": {
        "kind": "timing_sector_finish",
        "marker_role": "finish",
        "marker_order": 3,
        "marker_label": "Finish",
        "game_x": 205.7,
        "game_z": 35.3,
        "description": "finish"
      }
    }
  ]
}
