{
  "type": "FeatureCollection",
  "name": "pacenotes:Sisteron - Mézien",
  "properties": {
    "source_yaml": "c:\\temp\\acc\\vendor\\PacenotePal\\pacenotes\\Sisteron - Mézien.yml",
    "reference_shp": "c:\\temp\\acc\\reference_tracks\\sisteron.shp",
    "coordinate_space": "acc_world_zx",
    "swap_xz": true,
    "start_dist_m_offset": 350.794,
    "subtract_start_dist": true,
    "reference_point_count": 3459,
    "reference_station_max_m": 13404.806,
    "pacenote_count": 119,
    "max_pacenote_distance_m": 7698.0,
    "notes_beyond_reference_end": 0
  },
  "features": [
    {
      "type": "Feature",
      "geometry": {
        "type": "Point",
        "coordinates": [
          -4546.635,
          -2919.037
        ]
      },
      "properties": {
        "kind": "pacenote",
        "stage": "Sisteron - Mézien",
        "reference_track": "sisteron",
        "note_index": 0,
        "distance_m": 402.0,
        "distance_lookup_m": 51.206,
        "link_to_next": false,
        "notes": [
          "RightHP"
        ],
        "ref_segment_index": 86,
        "ref_segment_t": 0.746824
      }
    },
    {
      "type": "Feature",
      "geometry": {
        "type": "Point",
        "coordinates": [
          -4506.327,
          -2918.986
        ]
      },
      "properties": {
        "kind": "pacenote",
        "stage": "Sisteron - Mézien",
        "reference_track": "sisteron",
        "note_index": 1,
        "distance_m": 469.0,
        "distance_lookup_m": 118.206,
        "link_to_next": true,
        "notes": [
          "Pause1.5s",
          "Right5"
        ],
        "ref_segment_index": 112,
        "ref_segment_t": 0.252899
      }
    },
    {
      "type": "Feature",
      "geometry": {
        "type": "Point",
        "coordinates": [
          -4496.115,
          -2949.987
        ]
      },
      "properties": {
        "kind": "pacenote",
        "stage": "Sisteron - Mézien",
        "reference_track": "sisteron",
        "note_index": 2,
        "distance_m": 502.0,
        "distance_lookup_m": 151.206,
        "link_to_next": true,
        "notes": [
          "Into",
          "Left3",
          "Short"
        ],
        "ref_segment_index": 121,
        "ref_segment_t": 0.476867
      }
    },
    {
      "type": "Feature",
      "geometry": {
        "type": "Point",
        "coordinates": [
          -4482.42,
          -2977.314
        ]
      },
      "properties": {
        "kind": "pacenote",
        "stage": "Sisteron - Mézien",
        "reference_track": "sisteron",
        "note_index": 3,
        "distance_m": 533.0,
        "distance_lookup_m": 182.206,
        "link_to_next": true,
        "notes": [
          "And",
          "Right3"
        ],
        "ref_segment_index": 129,
        "ref_segment_t": 0.657211
      }
    },
    {
      "type": "Feature",
      "geometry": {
        "type": "Point",
        "coordinates": [
          -4468.884,
          -3008.654
        ]
      },
      "properties": {
        "kind": "pacenote",
        "stage": "Sisteron - Mézien",
        "reference_track": "sisteron",
        "note_index": 4,
        "distance_m": 568.0,
        "distance_lookup_m": 217.206,
        "link_to_next": true,
        "notes": [
          "Pause0.1s_Reset",
          "Into",
          "Left2"
        ],
        "ref_segment_index": 138,
        "ref_segment_t": 0.789122
      }
    },
    {
      "type": "Feature",
      "geometry": {
        "type": "Point",
        "coordinates": [
          -4449.214,
          -3031.623
        ]
      },
      "properties": {
        "kind": "pacenote",
        "stage": "Sisteron - Mézien",
        "reference_track": "sisteron",
        "note_index": 5,
        "distance_m": 600.0,
        "distance_lookup_m": 249.206,
        "link_to_next": false,
        "notes": [
          "Dist60"
        ],
        "ref_segment_index": 150,
        "ref_segment_t": 0.429783
      }
    },
    {
      "type": "Feature",
      "geometry": {
        "type": "Point",
        "coordinates": [
          -4391.295,
          -3058.539
        ]
      },
      "properties": {
        "kind": "pacenote",
        "stage": "Sisteron - Mézien",
        "reference_track": "sisteron",
        "note_index": 6,
        "distance_m": 664.0,
        "distance_lookup_m": 313.206,
        "link_to_next": true,
        "notes": [
          "LeftOpenHP",
          "Narrows",
          "Late"
        ],
        "ref_segment_index": 167,
        "ref_segment_t": 0.906151
      }
    },
    {
      "type": "Feature",
      "geometry": {
        "type": "Point",
        "coordinates": [
          -4379.887,
          -3012.508
        ]
      },
      "properties": {
        "kind": "pacenote",
        "stage": "Sisteron - Mézien",
        "reference_track": "sisteron",
        "note_index": 7,
        "distance_m": 753.0,
        "distance_lookup_m": 402.206,
        "link_to_next": false,
        "notes": [
          "Pause0.5s",
          "And",
          "Right2"
        ],
        "ref_segment_index": 201,
        "ref_segment_t": 0.690747
      }
    },
    {
      "type": "Feature",
      "geometry": {
        "type": "Point",
        "coordinates": [
          -4397.211,
          -2979.671
        ]
      },
      "properties": {
        "kind": "pacenote",
        "stage": "Sisteron - Mézien",
        "reference_track": "sisteron",
        "note_index": 8,
        "distance_m": 797.0,
        "distance_lookup_m": 446.206,
        "link_to_next": true,
        "notes": [
          "And",
          "Left3"
        ],
        "ref_segment_index": 217,
        "ref_segment_t": 0.647258
      }
    },
    {
      "type": "Feature",
      "geometry": {
        "type": "Point",
        "coordinates": [
          -4399.14,
          -2939.363
        ]
      },
      "properties": {
        "kind": "pacenote",
        "stage": "Sisteron - Mézien",
        "reference_track": "sisteron",
        "note_index": 9,
        "distance_m": 839.0,
        "distance_lookup_m": 488.206,
        "link_to_next": false,
        "notes": [
          "Pause0.1s_Reset",
          "Into",
          "Right2"
        ],
        "ref_segment_index": 229,
        "ref_segment_t": 0.651563
      }
    },
    {
      "type": "Feature",
      "geometry": {
        "type": "Point",
        "coordinates": [
          -4391.455,
          -2900.036
        ]
      },
      "properties": {
        "kind": "pacenote",
        "stage": "Sisteron - Mézien",
        "reference_track": "sisteron",
        "note_index": 10,
        "distance_m": 884.0,
        "distance_lookup_m": 533.206,
        "link_to_next": true,
        "notes": [
          "And",
          "Left4"
        ],
        "ref_segment_index": 245,
        "ref_segment_t": 0.994849
      }
    },
    {
      "type": "Feature",
      "geometry": {
        "type": "Point",
        "coordinates": [
          -4369.017,
          -2861.33
        ]
      },
      "properties": {
        "kind": "pacenote",
        "stage": "Sisteron - Mézien",
        "reference_track": "sisteron",
        "note_index": 11,
        "distance_m": 930.0,
        "distance_lookup_m": 579.206,
        "link_to_next": false,
        "notes": [
          "Pause0.25s",
          "Into",
          "RightHP"
        ],
        "ref_segment_index": 258,
        "ref_segment_t": 0.716847
      }
    },
    {
      "type": "Feature",
      "geometry": {
        "type": "Point",
        "coordinates": [
          -4343.003,
          -2865.846
        ]
      },
      "properties": {
        "kind": "pacenote",
        "stage": "Sisteron - Mézien",
        "reference_track": "sisteron",
        "note_index": 12,
        "distance_m": 985.0,
        "distance_lookup_m": 634.206,
        "link_to_next": true,
        "notes": [
          "Pause1.5s",
          "Left3",
          "TightensLate"
        ],
        "ref_segment_index": 287,
        "ref_segment_t": 0.314882
      }
    },
    {
      "type": "Feature",
      "geometry": {
        "type": "Point",
        "coordinates": [
          -4322.816,
          -2907.291
        ]
      },
      "properties": {
        "kind": "pacenote",
        "stage": "Sisteron - Mézien",
        "reference_track": "sisteron",
        "note_index": 13,
        "distance_m": 1034.0,
        "distance_lookup_m": 683.206,
        "link_to_next": false,
        "notes": [
          "Dist40"
        ],
        "ref_segment_index": 304,
        "ref_segment_t": 0.3385
      }
    },
    {
      "type": "Feature",
      "geometry": {
        "type": "Point",
        "coordinates": [
          -4286.416,
          -2930.042
        ]
      },
      "properties": {
        "kind": "pacenote",
        "stage": "Sisteron - Mézien",
        "reference_track": "sisteron",
        "note_index": 14,
        "distance_m": 1077.0,
        "distance_lookup_m": 726.206,
        "link_to_next": true,
        "notes": [
          "Left3"
        ],
        "ref_segment_index": 315,
        "ref_segment_t": 0.580256
      }
    },
    {
      "type": "Feature",
      "geometry": {
        "type": "Point",
        "coordinates": [
          -4227.329,
          -2931.902
        ]
      },
      "properties": {
        "kind": "pacenote",
        "stage": "Sisteron - Mézien",
        "reference_track": "sisteron",
        "note_index": 15,
        "distance_m": 1138.0,
        "distance_lookup_m": 787.206,
        "link_to_next": true,
        "notes": [
          "And",
          "Right3",
          "Short",
          "KeepIn"
        ],
        "ref_segment_index": 331,
        "ref_segment_t": 0.679742
      }
    },
    {
      "type": "Feature",
      "geometry": {
        "type": "Point",
        "coordinates": [
          -4182.504,
          -2934.313
        ]
      },
      "properties": {
        "kind": "pacenote",
        "stage": "Sisteron - Mézien",
        "reference_track": "sisteron",
        "note_index": 16,
        "distance_m": 1184.0,
        "distance_lookup_m": 833.206,
        "link_to_next": false,
        "notes": [
          "Dist100"
        ],
        "ref_segment_index": 342,
        "ref_segment_t": 0.101612
      }
    },
    {
      "type": "Feature",
      "geometry": {
        "type": "Point",
        "coordinates": [
          -4089.744,
          -2958.051
        ]
      },
      "properties": {
        "kind": "pacenote",
        "stage": "Sisteron - Mézien",
        "reference_track": "sisteron",
        "note_index": 17,
        "distance_m": 1280.0,
        "distance_lookup_m": 929.206,
        "link_to_next": true,
        "notes": [
          "Right6",
          "Brake"
        ],
        "ref_segment_index": 360,
        "ref_segment_t": 0.487087
      }
    },
    {
      "type": "Feature",
      "geometry": {
        "type": "Point",
        "coordinates": [
          -4036.631,
          -2975.097
        ]
      },
      "properties": {
        "kind": "pacenote",
        "stage": "Sisteron - Mézien",
        "reference_track": "sisteron",
        "note_index": 18,
        "distance_m": 1336.0,
        "distance_lookup_m": 985.206,
        "link_to_next": false,
        "notes": [
          "Pause0.25s",
          "Into",
          "Left3"
        ],
        "ref_segment_index": 370,
        "ref_segment_t": 0.491771
      }
    },
    {
      "type": "Feature",
      "geometry": {
        "type": "Point",
        "coordinates": [
          -3952.681,
          -2961.909
        ]
      },
      "properties": {
        "kind": "pacenote",
        "stage": "Sisteron - Mézien",
        "reference_track": "sisteron",
        "note_index": 19,
        "distance_m": 1426.0,
        "distance_lookup_m": 1075.206,
        "link_to_next": true,
        "notes": [
          "And",
          "Right4",
          "Long",
          "OpensLate"
        ],
        "ref_segment_index": 390,
        "ref_segment_t": 0.527521
      }
    },
    {
      "type": "Feature",
      "geometry": {
        "type": "Point",
        "coordinates": [
          -3847.958,
          -2946.467
        ]
      },
      "properties": {
        "kind": "pacenote",
        "stage": "Sisteron - Mézien",
        "reference_track": "sisteron",
        "note_index": 20,
        "distance_m": 1536.0,
        "distance_lookup_m": 1185.206,
        "link_to_next": false,
        "notes": [
          "Dist70"
        ],
        "ref_segment_index": 411,
        "ref_segment_t": 0.443649
      }
    },
    {
      "type": "Feature",
      "geometry": {
        "type": "Point",
        "coordinates": [
          -3778.28,
          -2967.387
        ]
      },
      "properties": {
        "kind": "pacenote",
        "stage": "Sisteron - Mézien",
        "reference_track": "sisteron",
        "note_index": 21,
        "distance_m": 1609.0,
        "distance_lookup_m": 1258.206,
        "link_to_next": false,
        "notes": [
          "Left4",
          "Long",
          "Pause0.1s",
          "Tighten2",
          "Late"
        ],
        "ref_segment_index": 425,
        "ref_segment_t": 0.109845
      }
    },
    {
      "type": "Feature",
      "geometry": {
        "type": "Point",
        "coordinates": [
          -3697.714,
          -2927.169
        ]
      },
      "properties": {
        "kind": "pacenote",
        "stage": "Sisteron - Mézien",
        "reference_track": "sisteron",
        "note_index": 22,
        "distance_m": 1721.0,
        "distance_lookup_m": 1370.206,
        "link_to_next": false,
        "notes": [
          "Dist40"
        ],
        "ref_segment_index": 454,
        "ref_segment_t": 0.329217
      }
    },
    {
      "type": "Feature",
      "geometry": {
        "type": "Point",
        "coordinates": [
          -3708.225,
          -2890.526
        ]
      },
      "properties": {
        "kind": "pacenote",
        "stage": "Sisteron - Mézien",
        "reference_track": "sisteron",
        "note_index": 23,
        "distance_m": 1759.0,
        "distance_lookup_m": 1408.206,
        "link_to_next": false,
        "notes": [
          "Left3",
          "Long"
        ],
        "ref_segment_index": 465,
        "ref_segment_t": 0.678927
      }
    },
    {
      "type": "Feature",
      "geometry": {
        "type": "Point",
        "coordinates": [
          -3771.146,
          -2846.656
        ]
      },
      "properties": {
        "kind": "pacenote",
        "stage": "Sisteron - Mézien",
        "reference_track": "sisteron",
        "note_index": 24,
        "distance_m": 1841.0,
        "distance_lookup_m": 1490.206,
        "link_to_next": true,
        "notes": [
          "Into",
          "Right2"
        ],
        "ref_segment_index": 490,
        "ref_segment_t": 0.921521
      }
    },
    {
      "type": "Feature",
      "geometry": {
        "type": "Point",
        "coordinates": [
          -3808.829,
          -2811.977
        ]
      },
      "properties": {
        "kind": "pacenote",
        "stage": "Sisteron - Mézien",
        "reference_track": "sisteron",
        "note_index": 25,
        "distance_m": 1900.0,
        "distance_lookup_m": 1549.206,
        "link_to_next": false,
        "notes": [
          "And",
          "Left3",
          "Opens",
          "VeryLong"
        ],
        "ref_segment_index": 509,
        "ref_segment_t": 0.335302
      }
    },
    {
      "type": "Feature",
      "geometry": {
        "type": "Point",
        "coordinates": [
          -3903.076,
          -2734.789
        ]
      },
      "properties": {
        "kind": "pacenote",
        "stage": "Sisteron - Mézien",
        "reference_track": "sisteron",
        "note_index": 26,
        "distance_m": 2030.0,
        "distance_lookup_m": 1679.206,
        "link_to_next": true,
        "notes": [
          "Into",
          "Right2",
          "Tightens"
        ],
        "ref_segment_index": 540,
        "ref_segment_t": 0.870812
      }
    },
    {
      "type": "Feature",
      "geometry": {
        "type": "Point",
        "coordinates": [
          -3929.337,
          -2712.516
        ]
      },
      "properties": {
        "kind": "pacenote",
        "stage": "Sisteron - Mézien",
        "reference_track": "sisteron",
        "note_index": 27,
        "distance_m": 2067.0,
        "distance_lookup_m": 1716.206,
        "link_to_next": true,
        "notes": [
          "And",
          "Left3",
          "Short"
        ],
        "ref_segment_index": 553,
        "ref_segment_t": 0.488732
      }
    },
    {
      "type": "Feature",
      "geometry": {
        "type": "Point",
        "coordinates": [
          -3950.438,
          -2684.775
        ]
      },
      "properties": {
        "kind": "pacenote",
        "stage": "Sisteron - Mézien",
        "reference_track": "sisteron",
        "note_index": 28,
        "distance_m": 2103.0,
        "distance_lookup_m": 1752.206,
        "link_to_next": true,
        "notes": [
          "Pause0.5s_Reset",
          "And",
          "Right3"
        ],
        "ref_segment_index": 563,
        "ref_segment_t": 0.838384
      }
    },
    {
      "type": "Feature",
      "geometry": {
        "type": "Point",
        "coordinates": [
          -3974.427,
          -2645.459
        ]
      },
      "properties": {
        "kind": "pacenote",
        "stage": "Sisteron - Mézien",
        "reference_track": "sisteron",
        "note_index": 29,
        "distance_m": 2151.0,
        "distance_lookup_m": 1800.206,
        "link_to_next": false,
        "notes": [
          "Dist40"
        ],
        "ref_segment_index": 576,
        "ref_segment_t": 0.985004
      }
    },
    {
      "type": "Feature",
      "geometry": {
        "type": "Point",
        "coordinates": [
          -3981.888,
          -2605.21
        ]
      },
      "properties": {
        "kind": "pacenote",
        "stage": "Sisteron - Mézien",
        "reference_track": "sisteron",
        "note_index": 30,
        "distance_m": 2192.0,
        "distance_lookup_m": 1841.206,
        "link_to_next": false,
        "notes": [
          "Brake",
          "Right2",
          "Tighten1"
        ],
        "ref_segment_index": 587,
        "ref_segment_t": 0.00162
      }
    },
    {
      "type": "Feature",
      "geometry": {
        "type": "Point",
        "coordinates": [
          -3925.127,
          -2591.154
        ]
      },
      "properties": {
        "kind": "pacenote",
        "stage": "Sisteron - Mézien",
        "reference_track": "sisteron",
        "note_index": 31,
        "distance_m": 2271.0,
        "distance_lookup_m": 1920.206,
        "link_to_next": true,
        "notes": [
          "Pause1.5s",
          "Left5"
        ],
        "ref_segment_index": 611,
        "ref_segment_t": 0.313884
      }
    },
    {
      "type": "Feature",
      "geometry": {
        "type": "Point",
        "coordinates": [
          -3879.856,
          -2601.744
        ]
      },
      "properties": {
        "kind": "pacenote",
        "stage": "Sisteron - Mézien",
        "reference_track": "sisteron",
        "note_index": 32,
        "distance_m": 2318.0,
        "distance_lookup_m": 1967.206,
        "link_to_next": true,
        "notes": [
          "And",
          "Right5"
        ],
        "ref_segment_index": 622,
        "ref_segment_t": 0.802167
      }
    },
    {
      "type": "Feature",
      "geometry": {
        "type": "Point",
        "coordinates": [
          -3836.859,
          -2613.543
        ]
      },
      "properties": {
        "kind": "pacenote",
        "stage": "Sisteron - Mézien",
        "reference_track": "sisteron",
        "note_index": 33,
        "distance_m": 2363.0,
        "distance_lookup_m": 2012.206,
        "link_to_next": false,
        "notes": [
          "Dist80"
        ],
        "ref_segment_index": 632,
        "ref_segment_t": 0.299333
      }
    },
    {
      "type": "Feature",
      "geometry": {
        "type": "Point",
        "coordinates": [
          -3758.749,
          -2646.655
        ]
      },
      "properties": {
        "kind": "pacenote",
        "stage": "Sisteron - Mézien",
        "reference_track": "sisteron",
        "note_index": 34,
        "distance_m": 2448.0,
        "distance_lookup_m": 2097.206,
        "link_to_next": true,
        "notes": [
          "Left6"
        ],
        "ref_segment_index": 648,
        "ref_segment_t": 0.0575
      }
    },
    {
      "type": "Feature",
      "geometry": {
        "type": "Point",
        "coordinates": [
          -3725.525,
          -2657.131
        ]
      },
      "properties": {
        "kind": "pacenote",
        "stage": "Sisteron - Mézien",
        "reference_track": "sisteron",
        "note_index": 35,
        "distance_m": 2483.0,
        "distance_lookup_m": 2132.206,
        "link_to_next": false,
        "notes": [
          "Dist50"
        ],
        "ref_segment_index": 654,
        "ref_segment_t": 0.121054
      }
    },
    {
      "type": "Feature",
      "geometry": {
        "type": "Point",
        "coordinates": [
          -3672.924,
          -2668.83
        ]
      },
      "properties": {
        "kind": "pacenote",
        "stage": "Sisteron - Mézien",
        "reference_track": "sisteron",
        "note_index": 36,
        "distance_m": 2537.0,
        "distance_lookup_m": 2186.206,
        "link_to_next": true,
        "notes": [
          "LeftKink"
        ],
        "ref_segment_index": 663,
        "ref_segment_t": 0.178061
      }
    },
    {
      "type": "Feature",
      "geometry": {
        "type": "Point",
        "coordinates": [
          -3630.337,
          -2674.239
        ]
      },
      "properties": {
        "kind": "pacenote",
        "stage": "Sisteron - Mézien",
        "reference_track": "sisteron",
        "note_index": 37,
        "distance_m": 2580.0,
        "distance_lookup_m": 2229.206,
        "link_to_next": false,
        "notes": [
          "Dist80",
          "KeepLeft"
        ],
        "ref_segment_index": 670,
        "ref_segment_t": 0.122285
      }
    },
    {
      "type": "Feature",
      "geometry": {
        "type": "Point",
        "coordinates": [
          -3549.997,
          -2679.226
        ]
      },
      "properties": {
        "kind": "pacenote",
        "stage": "Sisteron - Mézien",
        "reference_track": "sisteron",
        "note_index": 38,
        "distance_m": 2661.0,
        "distance_lookup_m": 2310.206,
        "link_to_next": true,
        "notes": [
          "Right5"
        ],
        "ref_segment_index": 682,
        "ref_segment_t": 0.477866
      }
    },
    {
      "type": "Feature",
      "geometry": {
        "type": "Point",
        "coordinates": [
          -3497.86,
          -2684.24
        ]
      },
      "properties": {
        "kind": "pacenote",
        "stage": "Sisteron - Mézien",
        "reference_track": "sisteron",
        "note_index": 39,
        "distance_m": 2714.0,
        "distance_lookup_m": 2363.206,
        "link_to_next": false,
        "notes": [
          "And",
          "Left5",
          "OverCrest",
          "GoStraight"
        ],
        "ref_segment_index": 690,
        "ref_segment_t": 0.970947
      }
    },
    {
      "type": "Feature",
      "geometry": {
        "type": "Point",
        "coordinates": [
          -3431.865,
          -2691.164
        ]
      },
      "properties": {
        "kind": "pacenote",
        "stage": "Sisteron - Mézien",
        "reference_track": "sisteron",
        "note_index": 40,
        "distance_m": 2781.0,
        "distance_lookup_m": 2430.206,
        "link_to_next": true,
        "notes": [
          "And",
          "KinksStartingRight"
        ],
        "ref_segment_index": 702,
        "ref_segment_t": 0.525952
      }
    },
    {
      "type": "Feature",
      "geometry": {
        "type": "Point",
        "coordinates": [
          -3330.357,
          -2702.036
        ]
      },
      "properties": {
        "kind": "pacenote",
        "stage": "Sisteron - Mézien",
        "reference_track": "sisteron",
        "note_index": 41,
        "distance_m": 2884.0,
        "distance_lookup_m": 2533.206,
        "link_to_next": true,
        "notes": [
          "Into",
          "Right4"
        ],
        "ref_segment_index": 720,
        "ref_segment_t": 0.79101
      }
    },
    {
      "type": "Feature",
      "geometry": {
        "type": "Point",
        "coordinates": [
          -3279.283,
          -2719.492
        ]
      },
      "properties": {
        "kind": "pacenote",
        "stage": "Sisteron - Mézien",
        "reference_track": "sisteron",
        "note_index": 42,
        "distance_m": 2939.0,
        "distance_lookup_m": 2588.206,
        "link_to_next": false,
        "notes": [
          "Dist50"
        ],
        "ref_segment_index": 731,
        "ref_segment_t": 0.484554
      }
    },
    {
      "type": "Feature",
      "geometry": {
        "type": "Point",
        "coordinates": [
          -3228.813,
          -2745.807
        ]
      },
      "properties": {
        "kind": "pacenote",
        "stage": "Sisteron - Mézien",
        "reference_track": "sisteron",
        "note_index": 43,
        "distance_m": 2996.0,
        "distance_lookup_m": 2645.206,
        "link_to_next": true,
        "notes": [
          "Brake",
          "Left3",
          "Tightens"
        ],
        "ref_segment_index": 742,
        "ref_segment_t": 0.337556
      }
    },
    {
      "type": "Feature",
      "geometry": {
        "type": "Point",
        "coordinates": [
          -3159.379,
          -2742.949
        ]
      },
      "properties": {
        "kind": "pacenote",
        "stage": "Sisteron - Mézien",
        "reference_track": "sisteron",
        "note_index": 44,
        "distance_m": 3069.0,
        "distance_lookup_m": 2718.206,
        "link_to_next": false,
        "notes": [
          "Into",
          "Right3",
          "Tightens"
        ],
        "ref_segment_index": 761,
        "ref_segment_t": 0.639796
      }
    },
    {
      "type": "Feature",
      "geometry": {
        "type": "Point",
        "coordinates": [
          -3094.909,
          -2769.56
        ]
      },
      "properties": {
        "kind": "pacenote",
        "stage": "Sisteron - Mézien",
        "reference_track": "sisteron",
        "note_index": 45,
        "distance_m": 3149.0,
        "distance_lookup_m": 2798.206,
        "link_to_next": true,
        "notes": [
          "And",
          "Left3"
        ],
        "ref_segment_index": 782,
        "ref_segment_t": 0.701709
      }
    },
    {
      "type": "Feature",
      "geometry": {
        "type": "Point",
        "coordinates": [
          -3052.807,
          -2793.142
        ]
      },
      "properties": {
        "kind": "pacenote",
        "stage": "Sisteron - Mézien",
        "reference_track": "sisteron",
        "note_index": 46,
        "distance_m": 3200.0,
        "distance_lookup_m": 2849.206,
        "link_to_next": false,
        "notes": [
          "Dist60"
        ],
        "ref_segment_index": 796,
        "ref_segment_t": 0.608856
      }
    },
    {
      "type": "Feature",
      "geometry": {
        "type": "Point",
        "coordinates": [
          -2992.927,
          -2793.122
        ]
      },
      "properties": {
        "kind": "pacenote",
        "stage": "Sisteron - Mézien",
        "reference_track": "sisteron",
        "note_index": 47,
        "distance_m": 3260.0,
        "distance_lookup_m": 2909.206,
        "link_to_next": true,
        "notes": [
          "Right3",
          "Opens"
        ],
        "ref_segment_index": 810,
        "ref_segment_t": 0.630234
      }
    },
    {
      "type": "Feature",
      "geometry": {
        "type": "Point",
        "coordinates": [
          -2931.392,
          -2825.193
        ]
      },
      "properties": {
        "kind": "pacenote",
        "stage": "Sisteron - Mézien",
        "reference_track": "sisteron",
        "note_index": 48,
        "distance_m": 3332.0,
        "distance_lookup_m": 2981.206,
        "link_to_next": true,
        "notes": [
          "Into",
          "Left2"
        ],
        "ref_segment_index": 827,
        "ref_segment_t": 0.406712
      }
    },
    {
      "type": "Feature",
      "geometry": {
        "type": "Point",
        "coordinates": [
          -2885.359,
          -2827.581
        ]
      },
      "properties": {
        "kind": "pacenote",
        "stage": "Sisteron - Mézien",
        "reference_track": "sisteron",
        "note_index": 49,
        "distance_m": 3383.0,
        "distance_lookup_m": 3032.206,
        "link_to_next": false,
        "notes": [
          "Dist50"
        ],
        "ref_segment_index": 842,
        "ref_segment_t": 0.95197
      }
    },
    {
      "type": "Feature",
      "geometry": {
        "type": "Point",
        "coordinates": [
          -2836.436,
          -2796.697
        ]
      },
      "properties": {
        "kind": "pacenote",
        "stage": "Sisteron - Mézien",
        "reference_track": "sisteron",
        "note_index": 50,
        "distance_m": 3441.0,
        "distance_lookup_m": 3090.206,
        "link_to_next": false,
        "notes": [
          "Right2",
          "Caution",
          "Tightens",
          "OverBridge"
        ],
        "ref_segment_index": 858,
        "ref_segment_t": 0.367934
      }
    },
    {
      "type": "Feature",
      "geometry": {
        "type": "Point",
        "coordinates": [
          -2802.412,
          -2823.912
        ]
      },
      "properties": {
        "kind": "pacenote",
        "stage": "Sisteron - Mézien",
        "reference_track": "sisteron",
        "note_index": 51,
        "distance_m": 3494.0,
        "distance_lookup_m": 3143.206,
        "link_to_next": false,
        "notes": [
          "And",
          "Left4",
          "Long"
        ],
        "ref_segment_index": 876,
        "ref_segment_t": 0.60991
      }
    },
    {
      "type": "Feature",
      "geometry": {
        "type": "Point",
        "coordinates": [
          -2754.156,
          -2900.695
        ]
      },
      "properties": {
        "kind": "pacenote",
        "stage": "Sisteron - Mézien",
        "reference_track": "sisteron",
        "note_index": 52,
        "distance_m": 3587.0,
        "distance_lookup_m": 3236.206,
        "link_to_next": false,
        "notes": [
          "Right3",
          "DontCut"
        ],
        "ref_segment_index": 898,
        "ref_segment_t": 0.739772
      }
    },
    {
      "type": "Feature",
      "geometry": {
        "type": "Point",
        "coordinates": [
          -2730.996,
          -2943.02
        ]
      },
      "properties": {
        "kind": "pacenote",
        "stage": "Sisteron - Mézien",
        "reference_track": "sisteron",
        "note_index": 53,
        "distance_m": 3637.0,
        "distance_lookup_m": 3286.206,
        "link_to_next": true,
        "notes": [
          "Into",
          "Left2"
        ],
        "ref_segment_index": 910,
        "ref_segment_t": 0.053341
      }
    },
    {
      "type": "Feature",
      "geometry": {
        "type": "Point",
        "coordinates": [
          -2693.723,
          -2974.492
        ]
      },
      "properties": {
        "kind": "pacenote",
        "stage": "Sisteron - Mézien",
        "reference_track": "sisteron",
        "note_index": 54,
        "distance_m": 3689.0,
        "distance_lookup_m": 3338.206,
        "link_to_next": false,
        "notes": [
          "And",
          "Right3",
          "Tightens"
        ],
        "ref_segment_index": 925,
        "ref_segment_t": 0.926384
      }
    },
    {
      "type": "Feature",
      "geometry": {
        "type": "Point",
        "coordinates": [
          -2670.211,
          -3017.946
        ]
      },
      "properties": {
        "kind": "pacenote",
        "stage": "Sisteron - Mézien",
        "reference_track": "sisteron",
        "note_index": 55,
        "distance_m": 3744.0,
        "distance_lookup_m": 3393.206,
        "link_to_next": false,
        "notes": [
          "Into",
          "Left2",
          "Short",
          "Narrows"
        ],
        "ref_segment_index": 939,
        "ref_segment_t": 0.429142
      }
    },
    {
      "type": "Feature",
      "geometry": {
        "type": "Point",
        "coordinates": [
          -2643.956,
          -3076.349
        ]
      },
      "properties": {
        "kind": "pacenote",
        "stage": "Sisteron - Mézien",
        "reference_track": "sisteron",
        "note_index": 56,
        "distance_m": 3810.0,
        "distance_lookup_m": 3459.206,
        "link_to_next": true,
        "notes": [
          "And",
          "Left4",
          "Short"
        ],
        "ref_segment_index": 956,
        "ref_segment_t": 0.364547
      }
    },
    {
      "type": "Feature",
      "geometry": {
        "type": "Point",
        "coordinates": [
          -2615.784,
          -3100.463
        ]
      },
      "properties": {
        "kind": "pacenote",
        "stage": "Sisteron - Mézien",
        "reference_track": "sisteron",
        "note_index": 57,
        "distance_m": 3848.0,
        "distance_lookup_m": 3497.206,
        "link_to_next": false,
        "notes": [
          "Into",
          "Right2",
          "Opens"
        ],
        "ref_segment_index": 966,
        "ref_segment_t": 0.512834
      }
    },
    {
      "type": "Feature",
      "geometry": {
        "type": "Point",
        "coordinates": [
          -2589.004,
          -3144.966
        ]
      },
      "properties": {
        "kind": "pacenote",
        "stage": "Sisteron - Mézien",
        "reference_track": "sisteron",
        "note_index": 58,
        "distance_m": 3905.0,
        "distance_lookup_m": 3554.206,
        "link_to_next": true,
        "notes": [
          "And",
          "Right3"
        ],
        "ref_segment_index": 983,
        "ref_segment_t": 0.567853
      }
    },
    {
      "type": "Feature",
      "geometry": {
        "type": "Point",
        "coordinates": [
          -2599.437,
          -3192.026
        ]
      },
      "properties": {
        "kind": "pacenote",
        "stage": "Sisteron - Mézien",
        "reference_track": "sisteron",
        "note_index": 59,
        "distance_m": 3955.0,
        "distance_lookup_m": 3604.206,
        "link_to_next": true,
        "notes": [
          "Into",
          "Left4",
          "Short"
        ],
        "ref_segment_index": 996,
        "ref_segment_t": 0.300666
      }
    },
    {
      "type": "Feature",
      "geometry": {
        "type": "Point",
        "coordinates": [
          -2606.089,
          -3220.005
        ]
      },
      "properties": {
        "kind": "pacenote",
        "stage": "Sisteron - Mézien",
        "reference_track": "sisteron",
        "note_index": 60,
        "distance_m": 3984.0,
        "distance_lookup_m": 3633.206,
        "link_to_next": false,
        "notes": [
          "Dist80"
        ],
        "ref_segment_index": 1002,
        "ref_segment_t": 0.836247
      }
    },
    {
      "type": "Feature",
      "geometry": {
        "type": "Point",
        "coordinates": [
          -2617.2,
          -3305.125
        ]
      },
      "properties": {
        "kind": "pacenote",
        "stage": "Sisteron - Mézien",
        "reference_track": "sisteron",
        "note_index": 61,
        "distance_m": 4070.0,
        "distance_lookup_m": 3719.206,
        "link_to_next": true,
        "notes": [
          "Right1"
        ],
        "ref_segment_index": 1021,
        "ref_segment_t": 0.769964
      }
    },
    {
      "type": "Feature",
      "geometry": {
        "type": "Point",
        "coordinates": [
          -2647.189,
          -3323.963
        ]
      },
      "properties": {
        "kind": "pacenote",
        "stage": "Sisteron - Mézien",
        "reference_track": "sisteron",
        "note_index": 62,
        "distance_m": 4113.0,
        "distance_lookup_m": 3762.206,
        "link_to_next": false,
        "notes": [
          "And",
          "Left2"
        ],
        "ref_segment_index": 1040,
        "ref_segment_t": 0.720655
      }
    },
    {
      "type": "Feature",
      "geometry": {
        "type": "Point",
        "coordinates": [
          -2687.527,
          -3336.705
        ]
      },
      "properties": {
        "kind": "pacenote",
        "stage": "Sisteron - Mézien",
        "reference_track": "sisteron",
        "note_index": 63,
        "distance_m": 4159.0,
        "distance_lookup_m": 3808.206,
        "link_to_next": true,
        "notes": [
          "And",
          "Right5",
          "Pause1.5s",
          "Brake"
        ],
        "ref_segment_index": 1056,
        "ref_segment_t": 0.873885
      }
    },
    {
      "type": "Feature",
      "geometry": {
        "type": "Point",
        "coordinates": [
          -2742.356,
          -3367.78
        ]
      },
      "properties": {
        "kind": "pacenote",
        "stage": "Sisteron - Mézien",
        "reference_track": "sisteron",
        "note_index": 64,
        "distance_m": 4223.0,
        "distance_lookup_m": 3872.206,
        "link_to_next": false,
        "notes": [
          "Pause0.25s_Reset",
          "LeftHP"
        ],
        "ref_segment_index": 1073,
        "ref_segment_t": 0.675995
      }
    },
    {
      "type": "Feature",
      "geometry": {
        "type": "Point",
        "coordinates": [
          -2733.873,
          -3389.527
        ]
      },
      "properties": {
        "kind": "pacenote",
        "stage": "Sisteron - Mézien",
        "reference_track": "sisteron",
        "note_index": 65,
        "distance_m": 4281.0,
        "distance_lookup_m": 3930.206,
        "link_to_next": true,
        "notes": [
          "Pause1.5s",
          "Right4"
        ],
        "ref_segment_index": 1101,
        "ref_segment_t": 0.445736
      }
    },
    {
      "type": "Feature",
      "geometry": {
        "type": "Point",
        "coordinates": [
          -2699.907,
          -3385.59
        ]
      },
      "properties": {
        "kind": "pacenote",
        "stage": "Sisteron - Mézien",
        "reference_track": "sisteron",
        "note_index": 66,
        "distance_m": 4316.0,
        "distance_lookup_m": 3965.206,
        "link_to_next": true,
        "notes": [
          "Into",
          "Left3",
          "Cut"
        ],
        "ref_segment_index": 1112,
        "ref_segment_t": 0.678834
      }
    },
    {
      "type": "Feature",
      "geometry": {
        "type": "Point",
        "coordinates": [
          -2667.252,
          -3381.682
        ]
      },
      "properties": {
        "kind": "pacenote",
        "stage": "Sisteron - Mézien",
        "reference_track": "sisteron",
        "note_index": 67,
        "distance_m": 4350.0,
        "distance_lookup_m": 3999.206,
        "link_to_next": true,
        "notes": [
          "And",
          "Right3"
        ],
        "ref_segment_index": 1121,
        "ref_segment_t": 0.269459
      }
    },
    {
      "type": "Feature",
      "geometry": {
        "type": "Point",
        "coordinates": [
          -2633.069,
          -3384.247
        ]
      },
      "properties": {
        "kind": "pacenote",
        "stage": "Sisteron - Mézien",
        "reference_track": "sisteron",
        "note_index": 68,
        "distance_m": 4386.0,
        "distance_lookup_m": 4035.206,
        "link_to_next": false,
        "notes": [
          "Dist40"
        ],
        "ref_segment_index": 1131,
        "ref_segment_t": 0.142423
      }
    },
    {
      "type": "Feature",
      "geometry": {
        "type": "Point",
        "coordinates": [
          -2591.358,
          -3403.968
        ]
      },
      "properties": {
        "kind": "pacenote",
        "stage": "Sisteron - Mézien",
        "reference_track": "sisteron",
        "note_index": 69,
        "distance_m": 4433.0,
        "distance_lookup_m": 4082.206,
        "link_to_next": true,
        "notes": [
          "Left3",
          "Short"
        ],
        "ref_segment_index": 1142,
        "ref_segment_t": 0.854172
      }
    },
    {
      "type": "Feature",
      "geometry": {
        "type": "Point",
        "coordinates": [
          -2548.83,
          -3407.418
        ]
      },
      "properties": {
        "kind": "pacenote",
        "stage": "Sisteron - Mézien",
        "reference_track": "sisteron",
        "note_index": 70,
        "distance_m": 4476.0,
        "distance_lookup_m": 4125.206,
        "link_to_next": false,
        "notes": [
          "Into",
          "Left3",
          "Tighten2",
          "Late"
        ],
        "ref_segment_index": 1155,
        "ref_segment_t": 0.105495
      }
    },
    {
      "type": "Feature",
      "geometry": {
        "type": "Point",
        "coordinates": [
          -2522.531,
          -3361.496
        ]
      },
      "properties": {
        "kind": "pacenote",
        "stage": "Sisteron - Mézien",
        "reference_track": "sisteron",
        "note_index": 71,
        "distance_m": 4536.0,
        "distance_lookup_m": 4185.206,
        "link_to_next": false,
        "notes": [
          "And",
          "Right2"
        ],
        "ref_segment_index": 1174,
        "ref_segment_t": 0.059432
      }
    },
    {
      "type": "Feature",
      "geometry": {
        "type": "Point",
        "coordinates": [
          -2507.486,
          -3318.411
        ]
      },
      "properties": {
        "kind": "pacenote",
        "stage": "Sisteron - Mézien",
        "reference_track": "sisteron",
        "note_index": 72,
        "distance_m": 4585.0,
        "distance_lookup_m": 4234.206,
        "link_to_next": false,
        "notes": [
          "And",
          "Right3"
        ],
        "ref_segment_index": 1190,
        "ref_segment_t": 0.318796
      }
    },
    {
      "type": "Feature",
      "geometry": {
        "type": "Point",
        "coordinates": [
          -2462.792,
          -3290.043
        ]
      },
      "properties": {
        "kind": "pacenote",
        "stage": "Sisteron - Mézien",
        "reference_track": "sisteron",
        "note_index": 73,
        "distance_m": 4640.0,
        "distance_lookup_m": 4289.206,
        "link_to_next": true,
        "notes": [
          "Into",
          "Left2"
        ],
        "ref_segment_index": 1204,
        "ref_segment_t": 0.467298
      }
    },
    {
      "type": "Feature",
      "geometry": {
        "type": "Point",
        "coordinates": [
          -2439.36,
          -3258.129
        ]
      },
      "properties": {
        "kind": "pacenote",
        "stage": "Sisteron - Mézien",
        "reference_track": "sisteron",
        "note_index": 74,
        "distance_m": 4682.0,
        "distance_lookup_m": 4331.206,
        "link_to_next": false,
        "notes": [
          "Dist70"
        ],
        "ref_segment_index": 1219,
        "ref_segment_t": 0.583412
      }
    },
    {
      "type": "Feature",
      "geometry": {
        "type": "Point",
        "coordinates": [
          -2441.501,
          -3178.513
        ]
      },
      "properties": {
        "kind": "pacenote",
        "stage": "Sisteron - Mézien",
        "reference_track": "sisteron",
        "note_index": 75,
        "distance_m": 4762.0,
        "distance_lookup_m": 4411.206,
        "link_to_next": false,
        "notes": [
          "RightHP"
        ],
        "ref_segment_index": 1242,
        "ref_segment_t": 0.916807
      }
    },
    {
      "type": "Feature",
      "geometry": {
        "type": "Point",
        "coordinates": [
          -2421.618,
          -3180.712
        ]
      },
      "properties": {
        "kind": "pacenote",
        "stage": "Sisteron - Mézien",
        "reference_track": "sisteron",
        "note_index": 76,
        "distance_m": 4824.0,
        "distance_lookup_m": 4473.206,
        "link_to_next": true,
        "notes": [
          "Pause1.5s",
          "Left4",
          "Short"
        ],
        "ref_segment_index": 1276,
        "ref_segment_t": 0.685171
      }
    },
    {
      "type": "Feature",
      "geometry": {
        "type": "Point",
        "coordinates": [
          -2419.443,
          -3207.108
        ]
      },
      "properties": {
        "kind": "pacenote",
        "stage": "Sisteron - Mézien",
        "reference_track": "sisteron",
        "note_index": 77,
        "distance_m": 4851.0,
        "distance_lookup_m": 4500.206,
        "link_to_next": false,
        "notes": [
          "Dist100"
        ],
        "ref_segment_index": 1286,
        "ref_segment_t": 0.189066
      }
    },
    {
      "type": "Feature",
      "geometry": {
        "type": "Point",
        "coordinates": [
          -2380.28,
          -3306.409
        ]
      },
      "properties": {
        "kind": "pacenote",
        "stage": "Sisteron - Mézien",
        "reference_track": "sisteron",
        "note_index": 78,
        "distance_m": 4958.0,
        "distance_lookup_m": 4607.206,
        "link_to_next": true,
        "notes": [
          "LeftOpenHP"
        ],
        "ref_segment_index": 1313,
        "ref_segment_t": 0.220464
      }
    },
    {
      "type": "Feature",
      "geometry": {
        "type": "Point",
        "coordinates": [
          -2331.66,
          -3298.084
        ]
      },
      "properties": {
        "kind": "pacenote",
        "stage": "Sisteron - Mézien",
        "reference_track": "sisteron",
        "note_index": 79,
        "distance_m": 5031.0,
        "distance_lookup_m": 4680.206,
        "link_to_next": false,
        "notes": [
          "Dist50"
        ],
        "ref_segment_index": 1342,
        "ref_segment_t": 0.453337
      }
    },
    {
      "type": "Feature",
      "geometry": {
        "type": "Point",
        "coordinates": [
          -2313.049,
          -3246.392
        ]
      },
      "properties": {
        "kind": "pacenote",
        "stage": "Sisteron - Mézien",
        "reference_track": "sisteron",
        "note_index": 80,
        "distance_m": 5086.0,
        "distance_lookup_m": 4735.206,
        "link_to_next": false,
        "notes": [
          "Right3",
          "KeepIn"
        ],
        "ref_segment_index": 1356,
        "ref_segment_t": 0.435623
      }
    },
    {
      "type": "Feature",
      "geometry": {
        "type": "Point",
        "coordinates": [
          -2266.568,
          -3215.13
        ]
      },
      "properties": {
        "kind": "pacenote",
        "stage": "Sisteron - Mézien",
        "reference_track": "sisteron",
        "note_index": 81,
        "distance_m": 5145.0,
        "distance_lookup_m": 4794.206,
        "link_to_next": true,
        "notes": [
          "And",
          "RightKink"
        ],
        "ref_segment_index": 1369,
        "ref_segment_t": 0.251649
      }
    },
    {
      "type": "Feature",
      "geometry": {
        "type": "Point",
        "coordinates": [
          -2220.917,
          -3201.255
        ]
      },
      "properties": {
        "kind": "pacenote",
        "stage": "Sisteron - Mézien",
        "reference_track": "sisteron",
        "note_index": 82,
        "distance_m": 5193.0,
        "distance_lookup_m": 4842.206,
        "link_to_next": false,
        "notes": [
          "Into",
          "Left4",
          "Tighten3"
        ],
        "ref_segment_index": 1379,
        "ref_segment_t": 0.191751
      }
    },
    {
      "type": "Feature",
      "geometry": {
        "type": "Point",
        "coordinates": [
          -2161.095,
          -3150.563
        ]
      },
      "properties": {
        "kind": "pacenote",
        "stage": "Sisteron - Mézien",
        "reference_track": "sisteron",
        "note_index": 83,
        "distance_m": 5275.0,
        "distance_lookup_m": 4924.206,
        "link_to_next": true,
        "notes": [
          "And",
          "Left5"
        ],
        "ref_segment_index": 1397,
        "ref_segment_t": 0.898012
      }
    },
    {
      "type": "Feature",
      "geometry": {
        "type": "Point",
        "coordinates": [
          -2150.493,
          -3111.145
        ]
      },
      "properties": {
        "kind": "pacenote",
        "stage": "Sisteron - Mézien",
        "reference_track": "sisteron",
        "note_index": 84,
        "distance_m": 5316.0,
        "distance_lookup_m": 4965.206,
        "link_to_next": true,
        "notes": [
          "And",
          "Right6"
        ],
        "ref_segment_index": 1406,
        "ref_segment_t": 0.041495
      }
    },
    {
      "type": "Feature",
      "geometry": {
        "type": "Point",
        "coordinates": [
          -2144.269,
          -3078.897
        ]
      },
      "properties": {
        "kind": "pacenote",
        "stage": "Sisteron - Mézien",
        "reference_track": "sisteron",
        "note_index": 85,
        "distance_m": 5349.0,
        "distance_lookup_m": 4998.206,
        "link_to_next": false,
        "notes": [
          "Dist60"
        ],
        "ref_segment_index": 1412,
        "ref_segment_t": 0.041073
      }
    },
    {
      "type": "Feature",
      "geometry": {
        "type": "Point",
        "coordinates": [
          -2126.255,
          -3018.616
        ]
      },
      "properties": {
        "kind": "pacenote",
        "stage": "Sisteron - Mézien",
        "reference_track": "sisteron",
        "note_index": 86,
        "distance_m": 5412.0,
        "distance_lookup_m": 5061.206,
        "link_to_next": false,
        "notes": [
          "Right3",
          "DontCut"
        ],
        "ref_segment_index": 1423,
        "ref_segment_t": 0.521632
      }
    },
    {
      "type": "Feature",
      "geometry": {
        "type": "Point",
        "coordinates": [
          -2088.098,
          -2978.308
        ]
      },
      "properties": {
        "kind": "pacenote",
        "stage": "Sisteron - Mézien",
        "reference_track": "sisteron",
        "note_index": 87,
        "distance_m": 5470.0,
        "distance_lookup_m": 5119.206,
        "link_to_next": false,
        "notes": [
          "And",
          "Left4"
        ],
        "ref_segment_index": 1435,
        "ref_segment_t": 0.502825
      }
    },
    {
      "type": "Feature",
      "geometry": {
        "type": "Point",
        "coordinates": [
          -2035.398,
          -2927.659
        ]
      },
      "properties": {
        "kind": "pacenote",
        "stage": "Sisteron - Mézien",
        "reference_track": "sisteron",
        "note_index": 88,
        "distance_m": 5544.0,
        "distance_lookup_m": 5193.206,
        "link_to_next": true,
        "notes": [
          "And",
          "Right6"
        ],
        "ref_segment_index": 1451,
        "ref_segment_t": 0.14589
      }
    },
    {
      "type": "Feature",
      "geometry": {
        "type": "Point",
        "coordinates": [
          -1997.538,
          -2886.903
        ]
      },
      "properties": {
        "kind": "pacenote",
        "stage": "Sisteron - Mézien",
        "reference_track": "sisteron",
        "note_index": 89,
        "distance_m": 5600.0,
        "distance_lookup_m": 5249.206,
        "link_to_next": false,
        "notes": [
          "Brake",
          "Pause0.1s_Reset",
          "Into",
          "Left2"
        ],
        "ref_segment_index": 1461,
        "ref_segment_t": 0.695596
      }
    },
    {
      "type": "Feature",
      "geometry": {
        "type": "Point",
        "coordinates": [
          -1982.008,
          -2839.964
        ]
      },
      "properties": {
        "kind": "pacenote",
        "stage": "Sisteron - Mézien",
        "reference_track": "sisteron",
        "note_index": 90,
        "distance_m": 5653.0,
        "distance_lookup_m": 5302.206,
        "link_to_next": true,
        "notes": [
          "And",
          "Right2"
        ],
        "ref_segment_index": 1478,
        "ref_segment_t": 0.265851
      }
    },
    {
      "type": "Feature",
      "geometry": {
        "type": "Point",
        "coordinates": [
          -1944.131,
          -2785.099
        ]
      },
      "properties": {
        "kind": "pacenote",
        "stage": "Sisteron - Mézien",
        "reference_track": "sisteron",
        "note_index": 91,
        "distance_m": 5731.0,
        "distance_lookup_m": 5380.206,
        "link_to_next": false,
        "notes": [
          "Pause0.25s_Reset",
          "Into",
          "LeftOpenHP",
          "TightensLate"
        ],
        "ref_segment_index": 1500,
        "ref_segment_t": 0.120787
      }
    },
    {
      "type": "Feature",
      "geometry": {
        "type": "Point",
        "coordinates": [
          -1939.281,
          -2737.81
        ]
      },
      "properties": {
        "kind": "pacenote",
        "stage": "Sisteron - Mézien",
        "reference_track": "sisteron",
        "note_index": 92,
        "distance_m": 5816.0,
        "distance_lookup_m": 5465.206,
        "link_to_next": true,
        "notes": [
          "Pause1.5s",
          "Right3",
          "Short"
        ],
        "ref_segment_index": 1571,
        "ref_segment_t": 0.840336
      }
    },
    {
      "type": "Feature",
      "geometry": {
        "type": "Point",
        "coordinates": [
          -1968.735,
          -2726.553
        ]
      },
      "properties": {
        "kind": "pacenote",
        "stage": "Sisteron - Mézien",
        "reference_track": "sisteron",
        "note_index": 93,
        "distance_m": 5848.0,
        "distance_lookup_m": 5497.206,
        "link_to_next": false,
        "notes": [
          "Dist40"
        ],
        "ref_segment_index": 1581,
        "ref_segment_t": 0.070917
      }
    },
    {
      "type": "Feature",
      "geometry": {
        "type": "Point",
        "coordinates": [
          -2004.994,
          -2699.908
        ]
      },
      "properties": {
        "kind": "pacenote",
        "stage": "Sisteron - Mézien",
        "reference_track": "sisteron",
        "note_index": 94,
        "distance_m": 5893.0,
        "distance_lookup_m": 5542.206,
        "link_to_next": true,
        "notes": [
          "Right2",
          "Tightens"
        ],
        "ref_segment_index": 1591,
        "ref_segment_t": 0.829019
      }
    },
    {
      "type": "Feature",
      "geometry": {
        "type": "Point",
        "coordinates": [
          -2017.33,
          -2662.758
        ]
      },
      "properties": {
        "kind": "pacenote",
        "stage": "Sisteron - Mézien",
        "reference_track": "sisteron",
        "note_index": 95,
        "distance_m": 5935.0,
        "distance_lookup_m": 5584.206,
        "link_to_next": false,
        "notes": [
          "Dist100"
        ],
        "ref_segment_index": 1603,
        "ref_segment_t": 0.544503
      }
    },
    {
      "type": "Feature",
      "geometry": {
        "type": "Point",
        "coordinates": [
          -1989.259,
          -2550.27
        ]
      },
      "properties": {
        "kind": "pacenote",
        "stage": "Sisteron - Mézien",
        "reference_track": "sisteron",
        "note_index": 96,
        "distance_m": 6051.0,
        "distance_lookup_m": 5700.206,
        "link_to_next": true,
        "notes": [
          "Right2",
          "Opens",
          "Long"
        ],
        "ref_segment_index": 1630,
        "ref_segment_t": 0.353485
      }
    },
    {
      "type": "Feature",
      "geometry": {
        "type": "Point",
        "coordinates": [
          -1918.661,
          -2516.058
        ]
      },
      "properties": {
        "kind": "pacenote",
        "stage": "Sisteron - Mézien",
        "reference_track": "sisteron",
        "note_index": 97,
        "distance_m": 6141.0,
        "distance_lookup_m": 5790.206,
        "link_to_next": false,
        "notes": [
          "Dist40"
        ],
        "ref_segment_index": 1654,
        "ref_segment_t": 0.14934
      }
    },
    {
      "type": "Feature",
      "geometry": {
        "type": "Point",
        "coordinates": [
          -1873.329,
          -2528.387
        ]
      },
      "properties": {
        "kind": "pacenote",
        "stage": "Sisteron - Mézien",
        "reference_track": "sisteron",
        "note_index": 98,
        "distance_m": 6188.0,
        "distance_lookup_m": 5837.206,
        "link_to_next": false,
        "notes": [
          "Left3",
          "Tighten2"
        ],
        "ref_segment_index": 1664,
        "ref_segment_t": 0.252917
      }
    },
    {
      "type": "Feature",
      "geometry": {
        "type": "Point",
        "coordinates": [
          -1819.875,
          -2474.704
        ]
      },
      "properties": {
        "kind": "pacenote",
        "stage": "Sisteron - Mézien",
        "reference_track": "sisteron",
        "note_index": 99,
        "distance_m": 6279.0,
        "distance_lookup_m": 5928.206,
        "link_to_next": true,
        "notes": [
          "And",
          "Right3"
        ],
        "ref_segment_index": 1689,
        "ref_segment_t": 0.501026
      }
    },
    {
      "type": "Feature",
      "geometry": {
        "type": "Point",
        "coordinates": [
          -1769.799,
          -2417.15
        ]
      },
      "properties": {
        "kind": "pacenote",
        "stage": "Sisteron - Mézien",
        "reference_track": "sisteron",
        "note_index": 100,
        "distance_m": 6358.0,
        "distance_lookup_m": 6007.206,
        "link_to_next": true,
        "notes": [
          "Pause0.25s",
          "And",
          "Right5"
        ],
        "ref_segment_index": 1706,
        "ref_segment_t": 0.592017
      }
    },
    {
      "type": "Feature",
      "geometry": {
        "type": "Point",
        "coordinates": [
          -1742.091,
          -2401.773
        ]
      },
      "properties": {
        "kind": "pacenote",
        "stage": "Sisteron - Mézien",
        "reference_track": "sisteron",
        "note_index": 101,
        "distance_m": 6390.0,
        "distance_lookup_m": 6039.206,
        "link_to_next": true,
        "notes": [
          "Into",
          "Left3"
        ],
        "ref_segment_index": 1712,
        "ref_segment_t": 0.958306
      }
    },
    {
      "type": "Feature",
      "geometry": {
        "type": "Point",
        "coordinates": [
          -1702.348,
          -2360.732
        ]
      },
      "properties": {
        "kind": "pacenote",
        "stage": "Sisteron - Mézien",
        "reference_track": "sisteron",
        "note_index": 102,
        "distance_m": 6449.0,
        "distance_lookup_m": 6098.206,
        "link_to_next": false,
        "notes": [
          "Dist150",
          "OverBumps"
        ],
        "ref_segment_index": 1727,
        "ref_segment_t": 0.725705
      }
    },
    {
      "type": "Feature",
      "geometry": {
        "type": "Point",
        "coordinates": [
          -1638.947,
          -2209.505
        ]
      },
      "properties": {
        "kind": "pacenote",
        "stage": "Sisteron - Mézien",
        "reference_track": "sisteron",
        "note_index": 103,
        "distance_m": 6613.0,
        "distance_lookup_m": 6262.206,
        "link_to_next": false,
        "notes": [
          "Left4",
          "Long",
          "Opens"
        ],
        "ref_segment_index": 1758,
        "ref_segment_t": 0.280297
      }
    },
    {
      "type": "Feature",
      "geometry": {
        "type": "Point",
        "coordinates": [
          -1641.737,
          -2059.967
        ]
      },
      "properties": {
        "kind": "pacenote",
        "stage": "Sisteron - Mézien",
        "reference_track": "sisteron",
        "note_index": 104,
        "distance_m": 6766.0,
        "distance_lookup_m": 6415.206,
        "link_to_next": false,
        "notes": [
          "Brake",
          "Into",
          "Right2",
          "Tightens"
        ],
        "ref_segment_index": 1786,
        "ref_segment_t": 0.52854
      }
    },
    {
      "type": "Feature",
      "geometry": {
        "type": "Point",
        "coordinates": [
          -1608.734,
          -2016.516
        ]
      },
      "properties": {
        "kind": "pacenote",
        "stage": "Sisteron - Mézien",
        "reference_track": "sisteron",
        "note_index": 105,
        "distance_m": 6839.0,
        "distance_lookup_m": 6488.206,
        "link_to_next": false,
        "notes": [
          "And",
          "Left2"
        ],
        "ref_segment_index": 1810,
        "ref_segment_t": 0.023857
      }
    },
    {
      "type": "Feature",
      "geometry": {
        "type": "Point",
        "coordinates": [
          -1571.726,
          -1978.51
        ]
      },
      "properties": {
        "kind": "pacenote",
        "stage": "Sisteron - Mézien",
        "reference_track": "sisteron",
        "note_index": 106,
        "distance_m": 6899.0,
        "distance_lookup_m": 6548.206,
        "link_to_next": false,
        "notes": [
          "And",
          "Right3",
          "Narrows",
          "DontCut"
        ],
        "ref_segment_index": 1827,
        "ref_segment_t": 0.068438
      }
    },
    {
      "type": "Feature",
      "geometry": {
        "type": "Point",
        "coordinates": [
          -1535.159,
          -1943.234
        ]
      },
      "properties": {
        "kind": "pacenote",
        "stage": "Sisteron - Mézien",
        "reference_track": "sisteron",
        "note_index": 107,
        "distance_m": 6954.0,
        "distance_lookup_m": 6603.206,
        "link_to_next": false,
        "notes": [
          "And",
          "Left4",
          "Long"
        ],
        "ref_segment_index": 1841,
        "ref_segment_t": 0.503214
      }
    },
    {
      "type": "Feature",
      "geometry": {
        "type": "Point",
        "coordinates": [
          -1462.604,
          -1863.425
        ]
      },
      "properties": {
        "kind": "pacenote",
        "stage": "Sisteron - Mézien",
        "reference_track": "sisteron",
        "note_index": 108,
        "distance_m": 7066.0,
        "distance_lookup_m": 6715.206,
        "link_to_next": false,
        "notes": [
          "Into",
          "Right3",
          "Opens"
        ],
        "ref_segment_index": 1864,
        "ref_segment_t": 0.584525
      }
    },
    {
      "type": "Feature",
      "geometry": {
        "type": "Point",
        "coordinates": [
          -1387.161,
          -1810.445
        ]
      },
      "properties": {
        "kind": "pacenote",
        "stage": "Sisteron - Mézien",
        "reference_track": "sisteron",
        "note_index": 109,
        "distance_m": 7166.0,
        "distance_lookup_m": 6815.206,
        "link_to_next": true,
        "notes": [
          "And",
          "Left4",
          "Short"
        ],
        "ref_segment_index": 1886,
        "ref_segment_t": 0.071429
      }
    },
    {
      "type": "Feature",
      "geometry": {
        "type": "Point",
        "coordinates": [
          -1342.739,
          -1790.99
        ]
      },
      "properties": {
        "kind": "pacenote",
        "stage": "Sisteron - Mézien",
        "reference_track": "sisteron",
        "note_index": 110,
        "distance_m": 7215.0,
        "distance_lookup_m": 6864.206,
        "link_to_next": false,
        "notes": [
          "Dist50"
        ],
        "ref_segment_index": 1895,
        "ref_segment_t": 0.912129
      }
    },
    {
      "type": "Feature",
      "geometry": {
        "type": "Point",
        "coordinates": [
          -1298.347,
          -1760.239
        ]
      },
      "properties": {
        "kind": "pacenote",
        "stage": "Sisteron - Mézien",
        "reference_track": "sisteron",
        "note_index": 111,
        "distance_m": 7269.0,
        "distance_lookup_m": 6918.206,
        "link_to_next": true,
        "notes": [
          "Left5",
          "Tighten4"
        ],
        "ref_segment_index": 1905,
        "ref_segment_t": 0.740286
      }
    },
    {
      "type": "Feature",
      "geometry": {
        "type": "Point",
        "coordinates": [
          -1253.079,
          -1699.498
        ]
      },
      "properties": {
        "kind": "pacenote",
        "stage": "Sisteron - Mézien",
        "reference_track": "sisteron",
        "note_index": 112,
        "distance_m": 7346.0,
        "distance_lookup_m": 6995.206,
        "link_to_next": false,
        "notes": [
          "Dist40"
        ],
        "ref_segment_index": 1919,
        "ref_segment_t": 0.603279
      }
    },
    {
      "type": "Feature",
      "geometry": {
        "type": "Point",
        "coordinates": [
          -1237.322,
          -1656.263
        ]
      },
      "properties": {
        "kind": "pacenote",
        "stage": "Sisteron - Mézien",
        "reference_track": "sisteron",
        "note_index": 113,
        "distance_m": 7392.0,
        "distance_lookup_m": 7041.206,
        "link_to_next": true,
        "notes": [
          "Right4",
          "Short"
        ],
        "ref_segment_index": 1927,
        "ref_segment_t": 0.829063
      }
    },
    {
      "type": "Feature",
      "geometry": {
        "type": "Point",
        "coordinates": [
          -1222.044,
          -1631.059
        ]
      },
      "properties": {
        "kind": "pacenote",
        "stage": "Sisteron - Mézien",
        "reference_track": "sisteron",
        "note_index": 114,
        "distance_m": 7422.0,
        "distance_lookup_m": 7071.206,
        "link_to_next": false,
        "notes": [
          "Into",
          "Left3"
        ],
        "ref_segment_index": 1932,
        "ref_segment_t": 0.932651
      }
    },
    {
      "type": "Feature",
      "geometry": {
        "type": "Point",
        "coordinates": [
          -1200.425,
          -1564.982
        ]
      },
      "properties": {
        "kind": "pacenote",
        "stage": "Sisteron - Mézien",
        "reference_track": "sisteron",
        "note_index": 115,
        "distance_m": 7493.0,
        "distance_lookup_m": 7142.206,
        "link_to_next": false,
        "notes": [
          "Into",
          "Right2",
          "DontCut"
        ],
        "ref_segment_index": 1947,
        "ref_segment_t": 0.760684
      }
    },
    {
      "type": "Feature",
      "geometry": {
        "type": "Point",
        "coordinates": [
          -1176.319,
          -1527.035
        ]
      },
      "properties": {
        "kind": "pacenote",
        "stage": "Sisteron - Mézien",
        "reference_track": "sisteron",
        "note_index": 116,
        "distance_m": 7542.0,
        "distance_lookup_m": 7191.206,
        "link_to_next": true,
        "notes": [
          "And",
          "Left3",
          "Short"
        ],
        "ref_segment_index": 1983,
        "ref_segment_t": 0.123874
      }
    },
    {
      "type": "Feature",
      "geometry": {
        "type": "Point",
        "coordinates": [
          -1153.106,
          -1509.372
        ]
      },
      "properties": {
        "kind": "pacenote",
        "stage": "Sisteron - Mézien",
        "reference_track": "sisteron",
        "note_index": 117,
        "distance_m": 7572.0,
        "distance_lookup_m": 7221.206,
        "link_to_next": false,
        "notes": [
          "Finish"
        ],
        "ref_segment_index": 1996,
        "ref_segment_t": 0.432673
      }
    },
    {
      "type": "Feature",
      "geometry": {
        "type": "Point",
        "coordinates": [
          -1071.512,
          -1414.414
        ]
      },
      "properties": {
        "kind": "pacenote",
        "stage": "Sisteron - Mézien",
        "reference_track": "sisteron",
        "note_index": 118,
        "distance_m": 7698.0,
        "distance_lookup_m": 7347.206,
        "link_to_next": false,
        "notes": [
          "SlowDown",
          "And",
          "StopAtMarshals"
        ],
        "ref_segment_index": 2025,
        "ref_segment_t": 0.90703
      }
    }
  ]
}
