{
  "type": "FeatureCollection",
  "name": "timing_sectors:cwmbiga_afon_biga",
  "properties": {
    "stage": "Cwmbiga - Afon Biga",
    "stage_slug": "cwmbiga_afon_biga",
    "reference_track": "hafren_north",
    "coordinate_space": "acc_world_zx",
    "swap_xz": true,
    "calibration_method": "manual_stillstand_player",
    "calibration_note": "Player super-slow pass; wheel centroid at each stop ([stillstand] log). No split-time auto lookup.",
    "position_source": "physics_tyre_contact_centroid",
    "reference_recording": "acc_physics_1778933210.rkyv",
    "reference_t_move_sec": {
      "Start": 0.0,
      "Sector_1": 127.7,
      "Sector_2": 267.2,
      "Sector_3": 382.8,
      "Finish": 478.9
    },
    "marker_count": 5
  },
  "features": [
    {
      "type": "Feature",
      "geometry": { "type": "Point", "coordinates": [-1087.1, 657.7] },
      "properties": {
        "kind": "timing_sector_timing_start",
        "marker_role": "timing_start",
        "marker_order": 0,
        "marker_label": "Start",
        "game_x": 657.7,
        "game_z": -1087.1,
        "distance_traveled_m": 154,
        "description": "Manual stillstand — grid / stage zero"
      }
    },
    {
      "type": "Feature",
      "geometry": { "type": "Point", "coordinates": [311.9, -993.0] },
      "properties": {
        "kind": "timing_sector_sector_boundary",
        "marker_role": "sector_boundary",
        "marker_order": 1,
        "marker_label": "Sector 1",
        "game_x": -993.0,
        "game_z": 311.9,
        "distance_traveled_m": 2997,
        "description": "Manual stillstand — end sector 1"
      }
    },
    {
      "type": "Feature",
      "geometry": { "type": "Point", "coordinates": [46.1, 111.4] },
      "properties": {
        "kind": "timing_sector_sector_boundary",
        "marker_role": "sector_boundary",
        "marker_order": 2,
        "marker_label": "Sector 2",
        "game_x": 111.4,
        "game_z": 46.1,
        "distance_traveled_m": 6412,
        "description": "Manual stillstand — end sector 2"
      }
    },
    {
      "type": "Feature",
      "geometry": { "type": "Point", "coordinates": [-576.8, 1601.5] },
      "properties": {
        "kind": "timing_sector_sector_boundary",
        "marker_role": "sector_boundary",
        "marker_order": 3,
        "marker_label": "Sector 3",
        "game_x": 1601.5,
        "game_z": -576.8,
        "distance_traveled_m": 9587,
        "description": "Manual stillstand — end sector 3"
      }
    },
    {
      "type": "Feature",
      "geometry": { "type": "Point", "coordinates": [1126.8, 1133.5] },
      "properties": {
        "kind": "timing_sector_finish",
        "marker_role": "finish",
        "marker_order": 4,
        "marker_label": "Finish",
        "game_x": 1133.5,
        "game_z": 1126.8,
        "distance_traveled_m": 11764,
        "description": "Manual stillstand — finish"
      }
    }
  ]
}
